STARLINK-30429          
1 57876U 23144N   24189.51265251  .00003078  00000+0  24280-3 0  9994
2 57876  43.0028   3.0511 0001199 271.5136  88.5569 15.02535097 45824
STARLINK-30284          
1 57877U 23144P   24189.83593020  .00001082  00000+0  95134-4 0  9998
2 57877  43.0053 322.9371 0001346 261.7893  98.2797 15.02535000 46326
STARLINK-30433          
1 57878U 23144Q   24189.90818325 -.00000183  00000+0  15034-5 0  9999
2 57878  43.0022   0.8549 0001147 262.8528  97.2184 15.02564766 45899
STARLINK-30358          
1 57879U 23144R   24189.50710389  .00000007  00000+0  15566-4 0  9990
2 57879  43.0044   3.0098 0001332 271.5195  88.5495 15.02532660 45820
STARLINK-30436          
1 57880U 23144S   24189.69876559  .00000327  00000+0  39252-4 0  9997
2 57880  43.0037   1.8678 0001571 273.6636  86.4026 15.02533859 45864
STARLINK-30406          
1 57881U 23144T   24189.45949039  .00054936  00000+0  28765-2 0  9996
2 57881  42.9960 358.3821 0016746 297.9834  61.9319 15.14924039 45878
STARLINK-30339          
1 57882U 23144U   24189.96134304  .00000076  00000+0  20695-4 0  9996
2 57882  43.0038   0.3996 0001175 273.0751  86.9957 15.02542652 45900
STARLINK-30282          
1 57883U 23144V   24189.55693079  .00001125  00000+0  98306-4 0  9991
2 57883  43.0053   2.5216 0001149 260.2208  99.8505 15.02537516 45830
STARLINK-30340          
1 57884U 23144W   24189.22010109 -.00001636  00000+0 -10607-3 0  9999
2 57884  43.0037   4.2889 0000584 308.1213  51.9576 15.02531233 45789
STARLINK-30279          
1 57885U 23144X   24189.95471539  .00024655  00000+0  18381-2 0  9998
2 57885  43.0038   0.3487 0000473 279.3046  80.7743 15.02447613 45832
STARLINK-30465          
1 57891U 23146A   24189.29277475 -.00000491  00000+0 -21275-4 0  9999
2 57891  43.0049  30.3369 0001314 266.6740  93.3952 15.02535969 45247
STARLINK-30470          
1 57892U 23146B   24189.28944453 -.00000324  00000+0 -89299-5 0  9992
2 57892  43.0062  30.3126 0001231 285.5715  74.4991 15.02534331 45249
STARLINK-30473          
1 57893U 23146C   24189.59851651  .00000253  00000+0  33824-4 0  9995
2 57893  43.0033  28.2679 0001132 270.2095  89.8617 15.02532038 45291
STARLINK-30443          
1 57894U 23146D   24189.54869412 -.00000326  00000+0 -90713-5 0  9999
2 57894  43.0039  28.8160 0001121 273.2619  86.8095 15.02535959 45283
STARLINK-30467          
1 57895U 23146E   24189.95088812  .00001155  00000+0  10053-3 0  9998
2 57895  43.0050  26.6742 0001085 275.9460  84.1258 15.02539713 45241
STARLINK-30469          
1 57896U 23146F   24189.54536502  .00005372  00000+0  41259-3 0  9995
2 57896  43.0050  28.7928 0001181 272.1568  87.9139 15.02521515 45235
STARLINK-30474          
1 57897U 23146G   24189.60628851  .00001214  00000+0  10493-3 0  9999
2 57897  43.0072  28.3882 0001237 267.7213  92.3488 15.02539246 45297
STARLINK-30479          
1 57898U 23146H   24189.60518470  .00000193  00000+0  29394-4 0  9991
2 57898  43.0054  28.3820 0001235 266.2925  93.7776 15.02532766 45242
STARLINK-30481          
1 57899U 23146J   24189.53536883  .00003389  00000+0  26585-3 0  9990
2 57899  43.0045  28.7176 0001253 263.9015  96.1685 15.02529762 45287
STARLINK-30457          
1 57900U 23146K   24189.91870720  .00001041  00000+0  92138-4 0  9997
2 57900  43.0046  26.4331 0001440 266.9591  93.1086 15.02529359 45137
STARLINK-30472          
1 57901U 23146L   24189.90093977  .00002092  00000+0  16988-3 0  9993
2 57901  43.0048  26.2953 0001020 269.8285  90.2440 15.02539798 45291
STARLINK-30462          
1 57902U 23146M   24189.52871703  .00003353  00000+0  26318-3 0  9992
2 57902  43.0030  28.6679 0001349 270.6179  89.4508 15.02537499 45246
STARLINK-30449          
1 57903U 23146N   24189.96409568  .00000280  00000+0  35765-4 0  9990
2 57903  43.0034  25.9118 0000992 278.1792  81.8938 15.02532952 45248
STARLINK-30466          
1 57904U 23146P   24189.59186380  .00006140  00000+0  46914-3 0  9992
2 57904  43.0042  28.2810 0001452 262.6474  97.4203 15.02540637 44235
STARLINK-30451          
1 57905U 23146Q   24189.89427863 -.00002757  00000+0 -18904-3 0  9990
2 57905  43.0034  26.2471 0001121 272.3288  87.7426 15.02554564 45281
STARLINK-30428          
1 57906U 23146R   24189.25614551  .00000036  00000+0  17723-4 0  9998
2 57906  43.0042  30.0621 0001338 273.8037  86.2652 15.02535190 44186
STARLINK-30482          
1 57907U 23146S   24189.51872197  .00001062  00000+0  93678-4 0  9993
2 57907  43.0054  28.5918 0001266 266.8538  93.2159 15.02536352 44236
STARLINK-30464          
1 57908U 23146T   24189.71150340 -.00000018  00000+0  13728-4 0  9994
2 57908  43.0052  27.4569 0001331 265.2965  94.7725 15.02532303 45200
STARLINK-30463          
1 57909U 23146U   24189.24948511  .00000259  00000+0  34279-4 0  9998
2 57909  43.0040  30.0118 0001240 268.3805  91.6895 15.02536132 44188
STARLINK-30453          
1 57910U 23146V   24189.24282583  .00000718  00000+0  68228-4 0  9991
2 57910  43.0056  29.9640 0001078 277.6102  82.4618 15.02535581 44184
