OBJECT_NAME,OBJECT_ID,EPOCH,MEAN_MOTION,ECCENTRICITY,INCLINATION,RA_OF_ASC_NODE,ARG_OF_PERICENTER,MEAN_ANOMALY,EPHEMERIS_TYPE,CLASSIFICATION_TYPE,NORAD_CAT_ID,ELEMENT_SET_NO,REV_AT_EPOCH,BSTAR,MEAN_MOTION_DOT,MEAN_MOTION_DDOT
STARLINK-30429,2023-144N,2024-07-07T12:18:13.176864,15.02535097,.0001199,43.0028,3.0511,271.5136,88.5569,0,U,57876,999,4582,.2428E-3,.3078E-4,0
STARLINK-30284,2023-144P,2024-07-07T20:03:44.369280,15.02535000,.0001346,43.0053,322.9371,261.7893,98.2797,0,U,57877,999,4632,.95134E-4,.1082E-4,0
STARLINK-30433,2023-144Q,2024-07-07T21:47:47.032800,15.02564766,.0001147,43.0022,0.8549,262.8528,97.2184,0,U,57878,999,4589,.15034E-5,-.183E-5,0
STARLINK-30358,2023-144R,2024-07-07T12:10:13.776096,15.02532660,.0001332,43.0044,3.0098,271.5195,88.5495,0,U,57879,999,4582,.15566E-4,.7E-7,0
STARLINK-30436,2023-144S,2024-07-07T16:46:13.346976,15.02533859,.0001571,43.0037,1.8678,273.6636,86.4026,0,U,57880,999,4586,.39252E-4,.327E-5,0
STARLINK-30406,2023-144T,2024-07-07T11:01:39.969696,15.14924039,.0016746,42.9960,358.3821,297.9834,61.9319,0,U,57881,999,4587,.28765E-2,.54936E-3,0
STARLINK-30339,2023-144U,2024-07-07T23:04:20.038656,15.02542652,.0001175,43.0038,0.3996,273.0751,86.9957,0,U,57882,999,4590,.20695E-4,.76E-6,0
STARLINK-30282,2023-144V,2024-07-07T13:21:58.820256,15.02537516,.0001149,43.0053,2.5216,260.2208,99.8505,0,U,57883,999,4583,.98306E-4,.1125E-4,0
STARLINK-30340,2023-144W,2024-07-07T05:16:56.734176,15.02531233,.0000584,43.0037,4.2889,308.1213,51.9576,0,U,57884,999,4578,-.10607E-3,-.1636E-4,0
STARLINK-30279,2023-144X,2024-07-07T22:54:47.409696,15.02447613,.0000473,43.0038,0.3487,279.3046,80.7743,0,U,57885,999,4583,.18381E-2,.24655E-3,0
STARLINK-30465,2023-146A,2024-07-07T07:01:35.738400,15.02535969,.0001314,43.0049,30.3369,266.6740,93.3952,0,U,57891,999,4524,-.21275E-4,-.491E-5,0
STARLINK-30470,2023-146B,2024-07-07T06:56:48.007392,15.02534331,.0001231,43.0062,30.3126,285.5715,74.4991,0,U,57892,999,4524,-.89299E-5,-.324E-5,0
STARLINK-30473,2023-146C,2024-07-07T14:21:51.826464,15.02532038,.0001132,43.0033,28.2679,270.2095,89.8617,0,U,57893,999,4529,.33824E-4,.253E-5,0
STARLINK-30443,2023-146D,2024-07-07T13:10:07.171968,15.02535959,.0001121,43.0039,28.8160,273.2619,86.8095,0,U,57894,999,4528,-.90713E-5,-.326E-5,0
STARLINK-30467,2023-146E,2024-07-07T22:49:16.733568,15.02539713,.0001085,43.0050,26.6742,275.9460,84.1258,0,U,57895,999,4524,.10053E-3,.1155E-4,0
STARLINK-30469,2023-146F,2024-07-07T13:05:19.537728,15.02521515,.0001181,43.0050,28.7928,272.1568,87.9139,0,U,57896,999,4523,.41259E-3,.5372E-4,0
STARLINK-30474,2023-146G,2024-07-07T14:33:03.327264,15.02539246,.0001237,43.0072,28.3882,267.7213,92.3488,0,U,57897,999,4529,.10493E-3,.1214E-4,0
STARLINK-30479,2023-146H,2024-07-07T14:31:27.958080,15.02532766,.0001235,43.0054,28.3820,266.2925,93.7776,0,U,57898,999,4524,.29394E-4,.193E-5,0
STARLINK-30481,2023-146J,2024-07-07T12:50:55.866912,15.02529762,.0001253,43.0045,28.7176,263.9015,96.1685,0,U,57899,999,4528,.26585E-3,.3389E-4,0
STARLINK-30457,2023-146K,2024-07-07T22:02:56.302080,15.02529359,.000144,43.0046,26.4331,266.9591,93.1086,0,U,57900,999,4513,.92138E-4,.1041E-4,0
STARLINK-30472,2023-146L,2024-07-07T21:37:21.196128,15.02539798,.000102,43.0048,26.2953,269.8285,90.2440,0,U,57901,999,4529,.16988E-3,.2092E-4,0
STARLINK-30462,2023-146M,2024-07-07T12:41:21.151392,15.02537499,.0001349,43.0030,28.6679,270.6179,89.4508,0,U,57902,999,4524,.26318E-3,.3353E-4,0
STARLINK-30449,2023-146N,2024-07-07T23:08:17.866752,15.02532952,.0000992,43.0034,25.9118,278.1792,81.8938,0,U,57903,999,4524,.35765E-4,.28E-5,0
STARLINK-30466,2023-146P,2024-07-07T14:12:17.032320,15.02540637,.0001452,43.0042,28.2810,262.6474,97.4203,0,U,57904,999,4423,.46914E-3,.614E-4,0
STARLINK-30451,2023-146Q,2024-07-07T21:27:45.673632,15.02554564,.0001121,43.0034,26.2471,272.3288,87.7426,0,U,57905,999,4528,-.18904E-3,-.2757E-4,0
STARLINK-30428,2023-146R,2024-07-07T06:08:50.972064,15.02535190,.0001338,43.0042,30.0621,273.8037,86.2652,0,U,57906,999,4418,.17723E-4,.36E-6,0
STARLINK-30482,2023-146S,2024-07-07T12:26:57.578208,15.02536352,.0001266,43.0054,28.5918,266.8538,93.2159,0,U,57907,999,4423,.93678E-4,.1062E-4,0
STARLINK-30464,2023-146T,2024-07-07T17:04:33.893760,15.02532303,.0001331,43.0052,27.4569,265.2965,94.7725,0,U,57908,999,4520,.13728E-4,-.18E-6,0
STARLINK-30463,2023-146U,2024-07-07T05:59:15.513504,15.02536132,.000124,43.0040,30.0118,268.3805,91.6895,0,U,57909,999,4418,.34279E-4,.259E-5,0
STARLINK-30453,2023-146V,2024-07-07T05:49:40.151712,15.02535581,.0001078,43.0056,29.9640,277.6102,82.4618,0,U,57910,999,4418,.68228E-4,.718E-5,0
